CCSDS_OMM_VERS,COMMENT,CREATION_DATE,ORIGINATOR,OBJECT_NAME,OBJECT_ID,CENTER_NAME,REF_FRAME,TIME_SYSTEM,MEAN_ELEMENT_THEORY,EPOCH,MEAN_MOTION,ECCENTRICITY,INCLINATION,RA_OF_ASC_NODE,ARG_OF_PERICENTER,MEAN_ANOMALY,EPHEMERIS_TYPE,CLASSIFICATION_TYPE,NORAD_CAT_ID,ELEMENT_SET_NO,REV_AT_EPOCH,BSTAR,MEAN_MOTION_DOT,MEAN_MOTION_DDOT,SEMIMAJOR_AXIS,PERIOD,APOAPSIS,PERIAPSIS,OBJECT_TYPE,RCS_SIZE,COUNTRY_CODE,LAUNCH_DATE,SITE,DECAY_DATE,FILE,GP_ID,TLE_LINE0,TLE_LINE1,TLE_LINE2
"2.0","GENERATED VIA SPACE-TRACK.ORG API","2020-03-03T01:31:39","18 SPCS","IRIDIUM 153","2017-083J","EARTH","TEME","UTC","SGP4","2020-03-02T19:36:04.274496","14.34217400","0.00023840","86.4032","170.5301","70.7169","289.4285","0","U","43078","999","11599","0.00001758500000","0.00000069","0.0000000000000","7155.805","100.403","779.376","775.964","PAYLOAD","LARGE","US","2017-12-23","AFWTR","","2712829","149911311","0 IRIDIUM 153","1 43078U 17083J   20062.81671614 +.00000069 +00000-0 +17585-4 0  9990","2 43078 086.4032 170.5301 0002384 070.7169 289.4285 14.34217400115990"
"2.0","GENERATED VIA SPACE-TRACK.ORG API","2020-03-02T22:26:16","18 SPCS","IRIDIUM 153","2017-083J","EARTH","TEME","UTC","SGP4","2020-03-02T17:55:36.273504","14.34217397","0.00023880","86.4033","170.5592","70.7608","289.3846","0","U","43078","999","11598","0.00001813500000","0.00000071","0.0000000000000","7155.805","100.403","779.379","775.961","PAYLOAD","LARGE","US","2017-12-23","AFWTR","","2712713","149890735","0 IRIDIUM 153","1 43078U 17083J   20062.74694761  .00000071  00000-0  18135-4 0  9995","2 43078  86.4033 170.5592 0002388  70.7608 289.3846 14.34217397115981"
"2.0","GENERATED VIA SPACE-TRACK.ORG API","2020-03-02T17:14:47","18 SPCS","IRIDIUM 153","2017-083J","EARTH","TEME","UTC","SGP4","2020-03-02T07:52:48.268416","14.34217439","0.00024240","86.4032","170.7339","70.9182","289.2276","0","U","43078","999","11592","0.00002297000000","0.00000084","0.0000000000000","7155.805","100.403","779.404","775.935","PAYLOAD","LARGE","US","2017-12-23","AFWTR","","2712687","149868996","0 IRIDIUM 153","1 43078U 17083J   20062.32833644 +.00000084 +00000-0 +22970-4 0  9990","2 43078 086.4032 170.7339 0002424 070.9182 289.2276 14.34217439115928"
"2.0","GENERATED VIA SPACE-TRACK.ORG API","2020-03-02T14:26:13","18 SPCS","COSMOS 1867","1987-060A","EARTH","TEME","UTC","SGP4","2020-03-02T04:36:13.316256","14.31109511","0.00145380","65.0127","340.9252","261.4630","98.4807","0","U","18187","999","70552","0.00000749920000","-0.00000080","0.0000000000000","7166.161","100.621","798.444","777.608","PAYLOAD","LARGE","CIS","1987-07-10","TTMTR","","2712531","149846968","0 COSMOS 1867","1 18187U 87060A   20062.19182079 -.00000080  00000-0  74992-5 0  9998","2 18187  65.0127 340.9252 0014538 261.4630  98.4807 14.31109511705527"
"2.0","GENERATED VIA SPACE-TRACK.ORG API","2020-03-02T02:04:54","18 SPCS","COSMOS 1867","1987-060A","EARTH","TEME","UTC","SGP4","2020-03-01T21:53:42.520416","14.31109495","0.00145450","65.0127","341.7075","261.4311","98.5126","0","U","18187","999","70525","0.00000550060000","-0.00000086","0.0000000000000","7166.161","100.621","798.449","777.603","PAYLOAD","LARGE","CIS","1987-07-10","TTMTR","","2712328","149807494","0 COSMOS 1867","1 18187U 87060A   20061.91229769 -.00000086 +00000-0 +55006-5 0  9996","2 18187 065.0127 341.7075 0014545 261.4311 098.5126 14.31109495705259"
"2.0","GENERATED VIA SPACE-TRACK.ORG API","2020-03-02T02:04:54","18 SPCS","IRIDIUM 153","2017-083J","EARTH","TEME","UTC","SGP4","2020-03-01T20:09:32.266656","14.34217351","0.00024460","86.4032","170.9375","71.1169","289.0292","0","U","43078","999","11585","0.00002282800000","0.00000084","0.0000000000000","7155.805","100.403","779.420","775.920","PAYLOAD","LARGE","US","2017-12-23","AFWTR","","2712328","149821031","0 IRIDIUM 153","1 43078U 17083J   20061.83995679 +.00000084 +00000-0 +22828-4 0  9994","2 43078 086.4032 170.9375 0002446 071.1169 289.0292 14.34217351115853"
"2.0","GENERATED VIA SPACE-TRACK.ORG API","2020-03-01T14:16:13","18 SPCS","IRIDIUM 153","2017-083J","EARTH","TEME","UTC","SGP4","2020-03-01T08:26:16.256256","14.34217362","0.00024800","86.4032","171.1413","71.8450","288.3015","0","U","43078","999","11578","0.00002645900000","0.00000094","0.0000000000000","7155.805","100.403","779.445","775.895","PAYLOAD","LARGE","US","2017-12-23","AFWTR","","2711995","149775326","0 IRIDIUM 153","1 43078U 17083J   20061.35157704  .00000094  00000-0  26459-4 0  9995","2 43078  86.4032 171.1413 0002480  71.8450 288.3015 14.34217362115786"
"2.0","GENERATED VIA SPACE-TRACK.ORG API","2020-03-01T17:38:56","18 SPCS","COSMOS 1867","1987-060A","EARTH","TEME","UTC","SGP4","2020-03-01T05:07:25.536000","14.31109394","0.00145630","65.0111","343.6640","260.8894","99.0543","0","U","18187","999","70515","0.00000049839000","-0.00000099","0.0000000000000","7166.161","100.621","798.463","777.590","PAYLOAD","LARGE","CIS","1987-07-10","TTMTR","","2712151","149783751","0 COSMOS 1867","1 18187U 87060A   20061.21349000 -.00000099 +00000-0 +49839-6 0  9992","2 18187 065.0111 343.6640 0014563 260.8894 099.0543 14.31109394705156"
"2.0","GENERATED VIA SPACE-TRACK.ORG API","2020-03-01T06:26:14","18 SPCS","COSMOS 1867","1987-060A","EARTH","TEME","UTC","SGP4","2020-03-01T03:26:47.839200","14.31109392","0.00145650","65.0111","343.8596","260.8989","99.0447","0","U","18187","999","70537","0.00000057581000","-0.00000099","0.0000000000000","7166.161","100.621","798.464","777.589","PAYLOAD","LARGE","CIS","1987-07-10","TTMTR","","2711798","149770877","0 COSMOS 1867","1 18187U 87060A   20061.14360925 -.00000099  00000-0  57581-6 0  9996","2 18187  65.0111 343.8596 0014565 260.8989  99.0447 14.31109392705370"
"2.0","GENERATED VIA SPACE-TRACK.ORG API","2020-03-01T04:11:06","18 SPCS","COSMOS 1867","1987-060A","EARTH","TEME","UTC","SGP4","2020-02-29T19:03:39.343968","14.31109413","0.00145750","65.0111","344.8374","260.8656","99.0779","0","U","18187","999","70509","0.00000147330000","-0.00000096","0.0000000000000","7166.161","100.621","798.471","777.582","PAYLOAD","LARGE","CIS","1987-07-10","TTMTR","","2711774","149755011","0 COSMOS 1867","1 18187U 87060A   20060.79420537 -.00000096 +00000-0 +14733-5 0  9990","2 18187 065.0111 344.8374 0014575 260.8656 099.0779 14.31109413705098"
"2.0","GENERATED VIA SPACE-TRACK.ORG API","2020-03-01T04:11:06","18 SPCS","IRIDIUM 153","2017-083J","EARTH","TEME","UTC","SGP4","2020-02-29T17:22:04.248192","14.34217250","0.00025140","86.4032","171.4032","72.6008","287.5463","0","U","43078","999","11569","0.00002609700000","0.00000093","0.0000000000000","7155.805","100.403","779.469","775.871","PAYLOAD","LARGE","US","2017-12-23","AFWTR","","2711774","149768545","0 IRIDIUM 153","1 43078U 17083J   20060.72366028 +.00000093 +00000-0 +26097-4 0  9993","2 43078 086.4032 171.4032 0002514 072.6008 287.5463 14.34217250115696"
"2.0","GENERATED VIA SPACE-TRACK.ORG API","2020-02-29T18:33:37","18 SPCS","IRIDIUM 153","2017-083J","EARTH","TEME","UTC","SGP4","2020-02-29T05:38:48.244704","14.34217149","0.00025460","86.4032","171.6069","73.2272","286.9203","0","U","43078","999","11562","0.00002519600000","0.00000090","0.0000000000000","7155.806","100.403","779.493","775.849","PAYLOAD","LARGE","US","2017-12-23","AFWTR","","2711584","149744580","0 IRIDIUM 153","1 43078U 17083J   20060.23528061 +.00000090 +00000-0 +25196-4 0  9992","2 43078 086.4032 171.6069 0002546 073.2272 286.9203 14.34217149115628"
"2.0","GENERATED VIA SPACE-TRACK.ORG API","2020-02-29T18:33:37","18 SPCS","COSMOS 1867","1987-060A","EARTH","TEME","UTC","SGP4","2020-02-29T03:58:00.056352","14.31109400","0.00145850","65.0110","346.5975","260.8381","99.1053","0","U","18187","999","70500","0.00000063191000","-0.00000099","0.0000000000000","7166.161","100.621","798.478","777.575","PAYLOAD","LARGE","CIS","1987-07-10","TTMTR","","2711584","149731046","0 COSMOS 1867","1 18187U 87060A   20060.16527843 -.00000099 +00000-0 +63191-6 0  9995","2 18187 065.0110 346.5975 0014585 260.8381 099.1053 14.31109400705002"
"2.0","GENERATED VIA SPACE-TRACK.ORG API","2020-02-29T06:36:16","18 SPCS","COSMOS 1867","1987-060A","EARTH","TEME","UTC","SGP4","2020-02-28T22:56:06.958176","14.31109414","0.00145890","65.0110","347.1842","260.8110","99.1324","0","U","18187","999","70520","0.00000059699000","-0.00000099","0.0000000000000","7166.161","100.621","798.481","777.572","PAYLOAD","LARGE","CIS","1987-07-10","TTMTR","","2711253","149719116","0 COSMOS 1867","1 18187U 87060A   20059.95563609 -.00000099  00000-0  59699-6 0  9998","2 18187  65.0110 347.1842 0014589 260.8110  99.1324 14.31109414705204"
"2.0","GENERATED VIA SPACE-TRACK.ORG API","2020-02-29T06:26:14","18 SPCS","IRIDIUM 153","2017-083J","EARTH","TEME","UTC","SGP4","2020-02-28T19:36:00.233568","14.34217071","0.00025590","86.4032","171.7815","73.5119","286.6358","0","U","43078","999","11556","0.00002403100000","0.00000087","0.0000000000000","7155.806","100.403","779.502","775.840","PAYLOAD","LARGE","US","2017-12-23","AFWTR","","2711245","149718925","0 IRIDIUM 153","1 43078U 17083J   20059.81666937  .00000087  00000-0  24031-4 0  9992","2 43078  86.4032 171.7815 0002559  73.5119 286.6358 14.34217071115560"
"2.0","GENERATED VIA SPACE-TRACK.ORG API","2020-02-29T03:32:49","18 SPCS","IRIDIUM 153","2017-083J","EARTH","TEME","UTC","SGP4","2020-02-28T17:55:32.228256","14.34217091","0.00025650","86.4032","171.8106","73.5850","286.5627","0","U","43078","999","11555","0.00002520600000","0.00000090","0.0000000000000","7155.806","100.403","779.506","775.835","PAYLOAD","LARGE","US","2017-12-23","AFWTR","","2711243","149716955","0 IRIDIUM 153","1 43078U 17083J   20059.74690079 +.00000090 +00000-0 +25206-4 0  9997","2 43078 086.4032 171.8106 0002565 073.5850 286.5627 14.34217091115552"
